NORAD_CAT_ID,OBJECT_NAME,OBJECT_TYPE,EPOCH,MEAN_MOTION,ECCENTRICITY,INCLINATION,RA_OF_ASC_NODE,ARG_OF_PERICENTER,MEAN_ANOMALY,BSTAR,MEAN_MOTION_DOT,MEAN_MOTION_DDOT,TLE_LINE0,TLE_LINE1,TLE_LINE2,SEMIMAJOR_AXIS,PERIOD,APOGEE,PERIGEE,DECAYED
53913.0,STARLINK-5053,PAYLOAD,2023-05-01 22:17:43,15.08849904,6.78e-05,53.2161,315.2395,131.1441,228.961,0.00013806,1.911e-05,0.0,0 STARLINK-5053,1 53913U 22119AD  23121.92897295  .00001911  00000-0  13806-3 0  9999,2 53913  53.2161 315.2395 0000678 131.1441 228.9610 15.08849904 33984,6917.85,95.437,540.184,539.246,0.0
53913.0,STARLINK-5053,PAYLOAD,2023-05-02 12:36:12,15.08842696,8.76e-05,53.2164,312.5661,64.9462,295.1621,0.00018454,2.651e-05,0.0,0 STARLINK-5053,1 53913U 22119AD  23122.52513948  .00002651  00000-0  18454-3 0  9992,2 53913  53.2164 312.5661 0000876  64.9462 295.1621 15.08842696 34079,6917.872,95.437,540.343,539.131,0.0
53913.0,STARLINK-5053,PAYLOAD,2023-05-02 18:57:44,15.08845068,9.25e-05,53.2163,311.3768,61.5827,298.5258,0.00016947,2.411e-05,0.0,0 STARLINK-5053,1 53913U 22119AD  23122.79009817  .00002411  00000-0  16947-3 0  9995,2 53913  53.2163 311.3768 0000925  61.5827 298.5258 15.08845068 34536,6917.865,95.437,540.37,539.09,0.0
53913.0,STARLINK-5053,PAYLOAD,2023-05-03 12:26:59,15.08840885,0.0001073,53.2167,308.1054,72.5485,287.5624,0.00010188,1.334e-05,0.0,0 STARLINK-5053,1 53913U 22119AD  23123.51873991  .00001334  00000-0  10188-3 0  9992,2 53913  53.2167 308.1054 0001073  72.5485 287.5624 15.08840885 34648,6917.878,95.437,540.485,539.0,0.0
53913.0,STARLINK-5053,PAYLOAD,2023-05-03 18:48:31,15.08841335,7.06e-05,53.2169,306.9144,100.746,259.3612,6.9747e-05,8.23e-06,0.0,0 STARLINK-5053,1 53913U 22119AD  23123.78369837  .00000823  00000-0  69747-4 0  9998,2 53913  53.2169 306.9144 0000706 100.7460 259.3612 15.08841335 34268,6917.876,95.437,540.23,539.253,0.0
53913.0,STARLINK-5053,PAYLOAD,2023-05-04 12:17:46,15.08839991,0.000116,53.2175,303.6418,78.3944,281.7178,8.442e-07,-2.74e-06,0.0,0 STARLINK-5053,1 53913U 22119AD  23124.51234093 -.00000274  00000-0  84420-6 0  9993,2 53913  53.2175 303.6418 0001160  78.3944 281.7178 15.08839991 34794,6917.88,95.438,540.548,538.943,0.0
53913.0,STARLINK-5053,PAYLOAD,2023-05-04 18:39:18,15.08840723,8.63e-05,53.2171,302.4527,103.4135,256.6953,2.0778e-05,4.3e-07,0.0,0 STARLINK-5053,1 53913U 22119AD  23124.77729948  .00000043  00000-0  20778-4 0  9996,2 53913  53.2171 302.4527 0000863 103.4135 256.6953 15.08840723 34831,6917.878,95.438,540.34,539.146,0.0
53913.0,STARLINK-5053,PAYLOAD,2023-05-05 12:08:33,15.08841296,8.06e-05,53.2169,299.1821,99.6033,260.505,0.00014114,1.959e-05,0.0,0 STARLINK-5053,1 53913U 22119AD  23125.50594017  .00001959  00000-0  14114-3 0  9998,2 53913  53.2169 299.1821 0000806  99.6033 260.5050 15.08841296 34521,6917.876,95.437,540.299,539.184,0.0
53913.0,STARLINK-5053,PAYLOAD,2023-05-05 18:30:05,15.08841871,8.36e-05,53.2167,297.994,77.1826,282.9259,0.00016526,2.344e-05,0.0,0 STARLINK-5053,1 53913U 22119AD  23125.77090251  .00002344  00000-0  16526-3 0  9996,2 53913  53.2167 297.9940 0000836  77.1826 282.9259 15.08841871 34989,6917.875,95.437,540.318,539.161,0.0
53913.0,STARLINK-5053,PAYLOAD,2023-05-06 11:59:20,15.08841831,7.65e-05,53.2161,294.7225,68.2488,291.8586,0.00021421,3.123e-05,0.0,0 STARLINK-5053,1 53913U 22119AD  23126.49954475  .00003123  00000-0  21421-3 0  9999,2 53913  53.2161 294.7225 0000765  68.2488 291.8586 15.08841831 35091,6917.875,95.437,540.269,539.211,0.0
53913.0,STARLINK-5053,PAYLOAD,2023-05-06 18:20:52,15.08853455,6.89e-05,53.2161,293.5332,81.2601,278.8469,0.00037361,5.665e-05,0.0,0 STARLINK-5053,1 53913U 22119AD  23126.76449894  .00005665  00000-0  37361-3 0  9996,2 53913  53.2161 293.5332 0000689  81.2601 278.8469 15.08853455 34712,6917.839,95.437,540.181,539.228,0.0
53913.0,STARLINK-5053,PAYLOAD,2023-05-07 03:53:11,15.08841246,6.98e-05,53.2162,291.7478,71.924,288.1828,5.1939e-05,5.39e-06,0.0,0 STARLINK-5053,1 53913U 22119AD  23127.16194016  .00000539  00000-0  51939-4 0  9997,2 53913  53.2162 291.7478 0000698  71.9240 288.1828 15.08841246 34773,6917.877,95.437,540.224,539.259,0.0
53913.0,STARLINK-5053,PAYLOAD,2023-05-07 18:11:41,15.08832947,8.21e-05,53.2159,289.0715,70.9713,289.1368,-4.5602e-06,-3.6e-06,0.0,0 STARLINK-5053,1 53913U 22119AD  23127.75811449 -.00000360  00000-0 -45602-5 0  9993,2 53913  53.2159 289.0715 0000821  70.9713 289.1368 15.08832947 34863,6917.902,95.438,540.335,539.199,0.0
53913.0,STARLINK-5053,PAYLOAD,2023-05-08 03:43:59,15.08841658,8.12e-05,53.2158,287.2877,79.7873,280.321,3.0319e-05,1.95e-06,0.0,0 STARLINK-5053,1 53913U 22119AD  23128.15554848  .00000195  00000-0  30319-4 0  9997,2 53913  53.2158 287.2877 0000812  79.7873 280.3210 15.08841658 34920,6917.875,95.437,540.302,539.179,0.0
53913.0,STARLINK-5053,PAYLOAD,2023-05-08 19:37:50,15.08857094,7.15e-05,53.2155,284.3137,83.8874,276.22,0.00044355,6.782e-05,0.0,0 STARLINK-5053,1 53913U 22119AD  23128.81794057  .00006782  00000-0  44355-3 0  9990,2 53913  53.2155 284.3137 0000715  83.8874 276.2200 15.08857094 35029,6917.828,95.436,540.188,539.199,0.0
53913.0,STARLINK-5053,PAYLOAD,2023-05-09 13:07:05,15.08844081,8.17e-05,53.2152,281.0427,64.6971,295.4105,0.00026214,3.887e-05,0.0,0 STARLINK-5053,1 53913U 22119AD  23129.54658768  .00003887  00000-0  26214-3 0  9996,2 53913  53.2152 281.0427 0000817  64.6971 295.4105 15.08844081 35557,6917.868,95.437,540.298,539.168,0.0
53913.0,STARLINK-5053,PAYLOAD,2023-05-10 12:57:52,15.08841686,9.61e-05,53.2148,276.584,55.9659,304.1425,0.00026279,3.897e-05,0.0,0 STARLINK-5053,1 53913U 22119AD  23130.54018883  .00003897  00000-0  26279-3 0  9998,2 53913  53.2148 276.5840 0000961  55.9659 304.1425 15.08841686 35704,6917.875,95.437,540.405,539.075,0.0
53913.0,STARLINK-5053,PAYLOAD,2023-05-10 19:19:24,15.08855312,8.71e-05,53.2163,275.3937,71.3045,288.8042,0.00035181,5.318e-05,0.0,0 STARLINK-5053,1 53913U 22119AD  23130.80514155  .00005318  00000-0  35181-3 0  9992,2 53913  53.2163 275.3937 0000871  71.3045 288.8042 15.08855312 35744,6917.834,95.437,540.301,539.096,0.0
53913.0,STARLINK-5053,PAYLOAD,2023-05-11 03:16:20,15.08841927,0.0001002,53.2159,273.9065,58.6179,301.4911,0.00024074,3.546e-05,0.0,0 STARLINK-5053,1 53913U 22119AD  23131.13634708  .00003546  00000-0  24074-3 0  9996,2 53913  53.2159 273.9065 0001002  58.6179 301.4911 15.08841927 35371,6917.874,95.437,540.433,539.046,0.0
53913.0,STARLINK-5053,PAYLOAD,2023-05-11 15:59:25,15.08842549,9.6e-05,53.2157,271.5281,69.1428,290.9667,0.00016974,2.415e-05,0.0,0 STARLINK-5053,1 53913U 22119AD  23131.66626874  .00002415  00000-0  16974-3 0  9993,2 53913  53.2157 271.5281 0000960  69.1428 290.9667 15.08842549 35875,6917.873,95.437,540.402,539.073,0.0
53913.0,STARLINK-5053,PAYLOAD,2023-05-12 15:50:12,15.0884322,8.81e-05,53.2141,267.068,72.5255,287.5833,0.00016872,2.399e-05,0.0,0 STARLINK-5053,1 53913U 22119AD  23132.65986937  .00002399  00000-0  16872-3 0  9990,2 53913  53.2141 267.0680 0000881  72.5255 287.5833 15.08843220 35604,6917.871,95.437,540.345,539.126,0.0
53913.0,STARLINK-5053,PAYLOAD,2023-05-13 12:30:13,15.08845089,7.44e-05,53.2137,263.2027,72.2927,287.8146,0.00022126,3.236e-05,0.0,0 STARLINK-5053,1 53913U 22119AD  23133.52098745  .00003236  00000-0  22126-3 0  9998,2 53913  53.2137 263.2027 0000744  72.2927 287.8146 15.08845089 36159,6917.865,95.437,540.245,539.215,0.0
53913.0,STARLINK-5053,PAYLOAD,2023-05-13 15:40:59,15.08848185,7.27e-05,53.2143,262.6077,71.0829,289.0242,0.0002451,3.616e-05,0.0,0 STARLINK-5053,1 53913U 22119AD  23133.65346568  .00003616  00000-0  24510-3 0  9992,2 53913  53.2143 262.6077 0000727  71.0829 289.0242 15.08848185 36176,6917.855,95.437,540.223,539.217,0.0
53913.0,STARLINK-5053,PAYLOAD,2023-05-14 01:13:18,15.08839859,8.28e-05,53.2151,260.8294,143.247,216.8579,8.9088e-05,1.13e-05,0.0,0 STARLINK-5053,1 53913U 22119AD  23134.05090570  .00001130  00000-0  89088-4 0  9997,2 53913  53.2151 260.8294 0000828 143.2470 216.8579 15.08839859 35811,6917.881,95.438,540.319,539.173,0.0
53913.0,STARLINK-5053,PAYLOAD,2023-05-14 12:21:02,15.08798888,0.0001454,53.216,258.7485,99.1296,260.986,0.001411,0.00022214,0.0,0 STARLINK-5053,1 53913U 22119AD  23134.51461170  .00022214  00000-0  14110-2 0  9994,2 53913  53.2160 258.7485 0001454  99.1296 260.9860 15.08798888 35886,6918.006,95.44,540.877,538.865,0.0
53913.0,STARLINK-5053,PAYLOAD,2023-05-14 13:56:24,15.08832885,0.000103,53.2157,258.443,86.0854,274.0256,-8.5685e-05,-1.651e-05,0.0,0 STARLINK-5053,1 53913U 22119AD  23134.58083349 -.00001651  00000-0 -85685-4 0  9990,2 53913  53.2157 258.4430 0001030  86.0854 274.0256 15.08832885 36314,6917.902,95.438,540.48,539.055,0.0
53913.0,STARLINK-5053,PAYLOAD,2023-05-15 12:11:47,15.0884017,0.000118,53.2172,254.2844,104.8791,255.2332,3.1785e-05,2.18e-06,0.0,0 STARLINK-5053,1 53913U 22119AD  23135.50819252  .00000218  00000-0  31785-4 0  9991,2 53913  53.2172 254.2844 0001180 104.8791 255.2332 15.08840170 36456,6917.88,95.438,540.561,538.929,0.0
53913.0,STARLINK-5053,PAYLOAD,2023-05-15 16:57:57,15.08842582,0.000128,53.2172,253.391,109.2666,250.8465,0.00011596,1.558e-05,0.0,0 STARLINK-5053,1 53913U 22119AD  23135.70691157  .00001558  00000-0  11596-3 0  9990,2 53913  53.2172 253.3910 0001280 109.2666 250.8465 15.08842582 36065,6917.872,95.437,540.623,538.852,0.0
53913.0,STARLINK-5053,PAYLOAD,2023-05-16 12:02:35,15.08835209,9.93e-05,53.2154,249.8182,106.2115,253.8987,0.00012353,1.679e-05,0.0,0 STARLINK-5053,1 53913U 22119AD  23136.50179652  .00001679  00000-0  12353-3 0  9996,2 53913  53.2154 249.8182 0000993 106.2115 253.8987 15.08835209 36602,6917.895,95.438,540.447,539.073,0.0
53913.0,STARLINK-5053,PAYLOAD,2023-05-16 16:48:44,15.08842653,0.0001049,53.2159,248.9238,102.6371,257.4738,0.00015064,2.111e-05,0.0,0 STARLINK-5053,1 53913U 22119AD  23136.70051299  .00002111  00000-0  15064-3 0  9998,2 53913  53.2159 248.9238 0001049 102.6371 257.4738 15.08842653 36218,6917.872,95.437,540.463,539.012,0.0
